[{"OBJECT_NAME":"LYRA-4","OBJECT_ID":"2025-140A","EPOCH":"2026-03-09T22:14:48.302880","MEAN_MOTION":14.72230607,"ECCENTRICITY":0.00130646,"INCLINATION":95.9893,"RA_OF_ASC_NODE":215.2508,"ARG_OF_PERICENTER":170.6132,"MEAN_ANOMALY":189.5328,"EPHEMERIS_TYPE":0,"CLASSIFICATION_TYPE":"U","NORAD_CAT_ID":64691,"ELEMENT_SET_NO":999,"REV_AT_EPOCH":3745,"BSTAR":0.00032811988,"MEAN_MOTION_DOT":2.043e-5,"MEAN_MOTION_DDOT":0},{"OBJECT_NAME":"FENGYUN 1C DEB","OBJECT_ID":"1999-025BUK","EPOCH":"2026-03-02T14:00:23.009760","MEAN_MOTION":14.24148099,"ECCENTRICITY":0.0231482,"INCLINATION":98.9795,"RA_OF_ASC_NODE":109.6925,"ARG_OF_PERICENTER":125.0525,"MEAN_ANOMALY":237.2607,"EPHEMERIS_TYPE":0,"CLASSIFICATION_TYPE":"U","NORAD_CAT_ID":31447,"ELEMENT_SET_NO":999,"REV_AT_EPOCH":65988,"BSTAR":0.00023507,"MEAN_MOTION_DOT":6.65e-6,"MEAN_MOTION_DDOT":0}]
